STARLINK-31659          
1 59254U 24050A   26068.52250970  .00003722  00000+0  13770-3 0  9992
2 59254  53.1607 179.5954 0001446 108.1860 251.9299 15.30203311111704
HAWK-11A                
1 62382U 24247F   26068.51231358  .00009457  00000+0  34106-3 0  9991
2 62382  44.9941 114.3328 0005466 327.3713  32.6832 15.28849427 67741
